{
    "links": {
        "self": "http://www.neowsapp.com/rest/v1/neo/3781228?api_key=iIulBulltgU6a56xZRHN4H3l9WmuAYTsLGpBGhQ2"
    },
    "id": "3781228",
    "neo_reference_id": "3781228",
    "name": "(2017 QO32)",
    "designation": "2017 QO32",
    "nasa_jpl_url": "http://ssd.jpl.nasa.gov/sbdb.cgi?sstr=3781228",
    "absolute_magnitude_h": 24.0,
    "estimated_diameter": {
        "kilometers": {
            "estimated_diameter_min": 0.0421264611,
            "estimated_diameter_max": 0.0941976306
        },
        "meters": {
            "estimated_diameter_min": 42.1264610556,
            "estimated_diameter_max": 94.1976305719
        },
        "miles": {
            "estimated_diameter_min": 0.0261761612,
            "estimated_diameter_max": 0.0585316759
        },
        "feet": {
            "estimated_diameter_min": 138.2101784897,
            "estimated_diameter_max": 309.0473542854
        }
    },
    "is_potentially_hazardous_asteroid": false,
    "close_approach_data": [
        {
            "close_approach_date": "2017-08-15",
            "close_approach_date_full": "2017-Aug-15 03:00",
            "epoch_date_close_approach": 1502766000000,
            "relative_velocity": {
                "kilometers_per_second": "6.9759644923",
                "kilometers_per_hour": "25113.4721721786",
                "miles_per_hour": "15604.5349727629"
            },
            "miss_distance": {
                "astronomical": "0.1213297236",
                "lunar": "47.1972624804",
                "kilometers": "18150668.218248732",
                "miles": "11278302.2489952216"
            },
            "orbiting_body": "Earth"
        }
    ],
    "orbital_data": {
        "orbit_id": "2",
        "orbit_determination_date": "2017-09-02 06:19:30",
        "first_observation_date": "2017-08-26",
        "last_observation_date": "2017-08-31",
        "data_arc_in_days": 5,
        "observations_used": 19,
        "orbit_uncertainty": "8",
        "minimum_orbit_intersection": ".105564",
        "jupiter_tisserand_invariant": "3.489",
        "epoch_osculation": "2457992.5",
        "eccentricity": ".4956078218377267",
        "semi_major_axis": "2.199936184776083",
        "inclination": "5.723598624079679",
        "ascending_node_longitude": "158.5186229724411",
        "orbital_period": "1191.827910212822",
        "perihelion_distance": "1.10963060405721",
        "perihelion_argument": "151.6306462337437",
        "aphelion_distance": "3.290241765494956",
        "perihelion_time": "2457971.922458858455",
        "mean_anomaly": "6.215590982118709",
        "mean_motion": ".3020570309816925",
        "equinox": "J2000",
        "orbit_class": {
            "orbit_class_type": "AMO",
            "orbit_class_description": "Near-Earth asteroid orbits similar to that of 1221 Amor",
            "orbit_class_range": "1.017 AU < q (perihelion) < 1.3 AU"
        }
    },
    "is_sentry_object": false
}